{
    "links": {
        "self": "http://www.neowsapp.com/rest/v1/neo/3989215?api_key=iIulBulltgU6a56xZRHN4H3l9WmuAYTsLGpBGhQ2"
    },
    "id": "3989215",
    "neo_reference_id": "3989215",
    "name": "(2020 BP9)",
    "designation": "2020 BP9",
    "nasa_jpl_url": "http://ssd.jpl.nasa.gov/sbdb.cgi?sstr=3989215",
    "absolute_magnitude_h": 26.892,
    "estimated_diameter": {
        "kilometers": {
            "estimated_diameter_min": 0.0111212852,
            "estimated_diameter_max": 0.0248679496
        },
        "meters": {
            "estimated_diameter_min": 11.1212851601,
            "estimated_diameter_max": 24.8679496151
        },
        "miles": {
            "estimated_diameter_min": 0.0069104441,
            "estimated_diameter_max": 0.0154522227
        },
        "feet": {
            "estimated_diameter_min": 36.4871572047,
            "estimated_diameter_max": 81.5877638154
        }
    },
    "is_potentially_hazardous_asteroid": false,
    "close_approach_data": [
        {
            "close_approach_date": "2020-01-22",
            "close_approach_date_full": "2020-Jan-22 05:15",
            "epoch_date_close_approach": 1579670100000,
            "relative_velocity": {
                "kilometers_per_second": "15.9132919781",
                "kilometers_per_hour": "57287.8511210527",
                "miles_per_hour": "35596.4428257452"
            },
            "miss_distance": {
                "astronomical": "0.0220887321",
                "lunar": "8.5925167869",
                "kilometers": "3304427.273160627",
                "miles": "2053275.8958735726"
            },
            "orbiting_body": "Earth"
        }
    ],
    "orbital_data": {
        "orbit_id": "1",
        "orbit_determination_date": "2020-01-26 20:42:23",
        "first_observation_date": "2020-01-25",
        "last_observation_date": "2020-01-26",
        "data_arc_in_days": 1,
        "observations_used": 18,
        "orbit_uncertainty": "8",
        "minimum_orbit_intersection": ".0163176",
        "jupiter_tisserand_invariant": "4.392",
        "epoch_osculation": "2458874.5",
        "eccentricity": ".5375160821010486",
        "semi_major_axis": "1.48366244172885",
        "inclination": "10.70266029678273",
        "ascending_node_longitude": "126.9590194033956",
        "orbital_period": "660.0868502386655",
        "perihelion_distance": ".6861700188902833",
        "perihelion_argument": "272.2318857976292",
        "aphelion_distance": "2.281154864567417",
        "perihelion_time": "2458820.209560487385",
        "mean_anomaly": "29.60907071164156",
        "mean_motion": ".5453827778417885",
        "equinox": "J2000",
        "orbit_class": {
            "orbit_class_type": "APO",
            "orbit_class_description": "Near-Earth asteroid orbits which cross the Earth’s orbit similar to that of 1862 Apollo",
            "orbit_class_range": "a (semi-major axis) > 1.0 AU; q (perihelion) < 1.017 AU"
        }
    },
    "is_sentry_object": false
}